{
  "norad_id": 58893,
  "name": "STARLINK-31255",
  "history": [
    {
      "epoch": "2026-03-28T17:17:07.196352Z",
      "apogee_km": 475.9089986095214,
      "perigee_km": 474.54380861952177,
      "latitude_deg": -4.139199071245877e-05,
      "longitude_deg": 148.68406513119757,
      "height_km": 476.3122783665414,
      "semi_major_axis_km": 6853.363403614521,
      "eccentricity": 9.96e-05,
      "inclination_deg": 53.1599,
      "raan_deg": 234.1007,
      "arg_perigee_deg": 105.9336,
      "mean_anomaly_deg": 254.1774,
      "mean_motion_rev_day": 15.30196204
    }
  ]
}